ALOS-4 (DAICHI-4)       
1 60182U 24123A   24255.83486561  .00001922  00000+0  26417-3 0  9994
2 60182  97.9211 351.2488 0001529  96.9564 263.1822 14.79474015 10754
